{"type": "FeatureCollection", "features": [ {"type": "Feature", "properties": {"norad_id": 65304, "name": "DRAGON CRS-33", "group": "stations", "lat": -16.82656845850487, "lon": 78.83926237797277, "alt_km": 418.813041372573, "timestamp": "2025-12-22T18:58:52.172390+00:00", "meta": {"OBJECT_NAME": "DRAGON CRS-33", "OBJECT_ID": "2025-186A", "EPOCH": "2025-12-21T22:57:18.016992", "MEAN_MOTION": 15.49714244, "ECCENTRICITY": 0.00031643, "INCLINATION": 51.6324, "RA_OF_ASC_NODE": 96.8363, "ARG_OF_PERICENTER": 283.4657, "MEAN_ANOMALY": 76.5979, "EPHEMERIS_TYPE": 0, "CLASSIFICATION_TYPE": "U", "NORAD_CAT_ID": 65304, "ELEMENT_SET_NO": 999, "REV_AT_EPOCH": 11, "BSTAR": 0.00020227117, "MEAN_MOTION_DOT": 0.0001099, "MEAN_MOTION_DDOT": 0}, "tle": {"line1": "1 65304U 25186A   25355.95645853  .00010990  00000+0  20227-3 0  9999", "line2": "2 65304  51.6324  96.8363 0003164 283.4657  76.5979 15.49714244   111"}}, "geometry": {"type": "Point", "coordinates": [78.83926237797277, -16.82656845850487]}}, {"type": "Feature", "properties": {"norad_id": 65586, "name": "PROGRESS-MS 32", "group": "stations", "lat": -16.826567868524656, "lon": 78.83926290274162, "alt_km": 418.81304134017046, "timestamp": "2025-12-22T18:58:52.172402+00:00", "meta": {"OBJECT_NAME": "PROGRESS-MS 32", "OBJECT_ID": "2025-204A", "EPOCH": "2025-12-21T22:57:18.016992", "MEAN_MOTION": 15.49714244, "ECCENTRICITY": 0.00031643, "INCLINATION": 51.6324, "RA_OF_ASC_NODE": 96.8363, "ARG_OF_PERICENTER": 283.4657, "MEAN_ANOMALY": 76.5979, "EPHEMERIS_TYPE": 0, "CLASSIFICATION_TYPE": "U", "NORAD_CAT_ID": 65586, "ELEMENT_SET_NO": 999, "REV_AT_EPOCH": 27, "BSTAR": 0.00020227117, "MEAN_MOTION_DOT": 0.0001099, "MEAN_MOTION_DDOT": 0}, "tle": {"line1": "1 65586U 25204A   25355.95645853  .00010990  00000+0  20227-3 0  9992", "line2": "2 65586  51.6324  96.8363 0003164 283.4657  76.5979 15.49714244   270"}}, "geometry": {"type": "Point", "coordinates": [78.83926290274162, -16.826567868524656]}}, {"type": "Feature", "properties": {"norad_id": 65616, "name": "CYGNUS NG-23", "group": "stations", "lat": -16.826567376873953, "lon": 78.83926334004946, "alt_km": 418.8130413131712, "timestamp": "2025-12-22T18:58:52.172412+00:00", "meta": {"OBJECT_NAME": "CYGNUS NG-23", "OBJECT_ID": "2025-208A", "EPOCH": "2025-12-21T22:57:18.016992", "MEAN_MOTION": 15.49714244, "ECCENTRICITY": 0.00031643, "INCLINATION": 51.6324, "RA_OF_ASC_NODE": 96.8363, "ARG_OF_PERICENTER": 283.4657, "MEAN_ANOMALY": 76.5979, "EPHEMERIS_TYPE": 0, "CLASSIFICATION_TYPE": "U", "NORAD_CAT_ID": 65616, "ELEMENT_SET_NO": 999, "REV_AT_EPOCH": 22, "BSTAR": 0.00020227117, "MEAN_MOTION_DOT": 0.0001099, "MEAN_MOTION_DDOT": 0}, "tle": {"line1": "1 65616U 25208A   25355.95645853  .00010990  00000+0  20227-3 0  9990", "line2": "2 65616  51.6324  96.8363 0003164 283.4657  76.5979 15.49714244   229"}}, "geometry": {"type": "Point", "coordinates": [78.83926334004946, -16.826567376873953]}}, {"type": "Feature", "properties": {"norad_id": 65729, "name": "DRAGONFLY", "group": "stations", "lat": 49.33618708280791, "lon": -163.1297104456767, "alt_km": 340.4508664986388, "timestamp": "2025-12-22T18:58:52.172423+00:00", "meta": {"OBJECT_NAME": "DRAGONFLY", "OBJECT_ID": "1998-067XH", "EPOCH": "2025-12-21T12:05:00.182112", "MEAN_MOTION": 15.74757439, "ECCENTRICITY": 0.00076429, "INCLINATION": 51.6248, "RA_OF_ASC_NODE": 90.7906, "ARG_OF_PERICENTER": 331.3887, "MEAN_ANOMALY": 28.6692, "EPHEMERIS_TYPE": 0, "CLASSIFICATION_TYPE": "U", "NORAD_CAT_ID": 65729, "ELEMENT_SET_NO": 999, "REV_AT_EPOCH": 1454, "BSTAR": 0.0011143693, "MEAN_MOTION_DOT": 0.00170588, "MEAN_MOTION_DDOT": 0}, "tle": {"line1": "1 65729U 98067XH  25355.50347433  .00170588  00000+0  11144-2 0  9999", "line2": "2 65729  51.6248  90.7906 0007642 331.3887  28.6692 15.74757439 14549"}}, "geometry": {"type": "Point", "coordinates": [-163.1297104456767, 49.33618708280791]}}, {"type": "Feature", "properties": {"norad_id": 65731, "name": "1998-067XK", "group": "stations", "lat": -41.911927847905154, "lon": -48.50077704400632, "alt_km": 368.90850040789337, "timestamp": "2025-12-22T18:58:52.172433+00:00", "meta": {"OBJECT_NAME": "1998-067XK", "OBJECT_ID": "1998-067XK", "EPOCH": "2025-12-21T23:36:26.096832", "MEAN_MOTION": 15.67429513, "ECCENTRICITY": 0.00048355, "INCLINATION": 51.6293, "RA_OF_ASC_NODE": 90.2734, "ARG_OF_PERICENTER": 305.1289, "MEAN_ANOMALY": 54.9254, "EPHEMERIS_TYPE": 0, "CLASSIFICATION_TYPE": "U", "NORAD_CAT_ID": 65731, "ELEMENT_SET_NO": 999, "REV_AT_EPOCH": 1459, "BSTAR": 0.000976025, "MEAN_MOTION_DOT": 0.00108748, "MEAN_MOTION_DDOT": 0}, "tle": {"line1": "1 65731U 98067XK  25355.98363538  .00108748  00000+0  97602-3 0  9991", "line2": "2 65731  51.6293  90.2734 0004835 305.1289  54.9254 15.67429513 14594"}}, "geometry": {"type": "Point", "coordinates": [-48.50077704400632, -41.911927847905154]}}, {"type": "Feature", "properties": {"norad_id": 65732, "name": "RSP-03", "group": "stations", "lat": -25.570798760714716, "lon": 62.93438836264669, "alt_km": 355.32589358614496, "timestamp": "2025-12-22T18:58:52.172443+00:00", "meta": {"OBJECT_NAME": "RSP-03", "OBJECT_ID": "1998-067XL", "EPOCH": "2025-12-22T06:54:35.592480", "MEAN_MOTION": 15.70976821, "ECCENTRICITY": 0.00056984, "INCLINATION": 51.6263, "RA_OF_ASC_NODE": 87.7899, "ARG_OF_PERICENTER": 311.2315, "MEAN_ANOMALY": 48.8191, "EPHEMERIS_TYPE": 0, "CLASSIFICATION_TYPE": "U", "NORAD_CAT_ID": 65732, "ELEMENT_SET_NO": 999, "REV_AT_EPOCH": 1466, "BSTAR": 0.0011568337, "MEAN_MOTION_DOT": 0.00150193, "MEAN_MOTION_DDOT": 0}, "tle": {"line1": "1 65732U 98067XL  25356.28791195  .00150193  00000+0  11568-2 0  9997", "line2": "2 65732  51.6263  87.7899 0005698 311.2315  48.8191 15.70976821 14664"}}, "geometry": {"type": "Point", "coordinates": [62.93438836264669, -25.570798760714716]}}, {"type": "Feature", "properties": {"norad_id": 65733, "name": "GHS-01", "group": "stations", "lat": 28.63281211277609, "lon": -122.29014301171313, "alt_km": 334.8468933742288, "timestamp": "2025-12-22T18:58:52.172456+00:00", "meta": {"OBJECT_NAME": "GHS-01", "OBJECT_ID": "1998-067XM", "EPOCH": "2025-12-21T11:59:59.059968", "MEAN_MOTION": 15.78528465, "ECCENTRICITY": 0.00088162, "INCLINATION": 51.6282, "RA_OF_ASC_NODE": 90.0237, "ARG_OF_PERICENTER": 335.2591, "MEAN_ANOMALY": 24.7986, "EPHEMERIS_TYPE": 0, "CLASSIFICATION_TYPE": "U", "NORAD_CAT_ID": 65733, "ELEMENT_SET_NO": 999, "REV_AT_EPOCH": 1456, "BSTAR": 0.0013106356, "MEAN_MOTION_DOT": 0.00239293, "MEAN_MOTION_DDOT": 0}, "tle": {"line1": "1 65733U 98067XM  25355.49998912  .00239293  00000+0  13106-2 0  9995", "line2": "2 65733  51.6282  90.0237 0008816 335.2591  24.7986 15.78528465 14565"}}, "geometry": {"type": "Point", "coordinates": [-122.29014301171313, 28.63281211277609]}}, {"type": "Feature", "properties": {"norad_id": 65941, "name": "YOTSUBA-KULOVER", "group": "stations", "lat": 41.9291247134193, "lon": -135.95887019536988, "alt_km": 380.8605406950437, "timestamp": "2025-12-22T18:58:52.172466+00:00", "meta": {"OBJECT_NAME": "YOTSUBA-KULOVER", "OBJECT_ID": "1998-067XN", "EPOCH": "2025-12-22T06:10:09.411168", "MEAN_MOTION": 15.60674644, "ECCENTRICITY": 0.00021538, "INCLINATION": 51.6293, "RA_OF_ASC_NODE": 92.0993, "ARG_OF_PERICENTER": 341.2736, "MEAN_ANOMALY": 18.8178, "EPHEMERIS_TYPE": 0, "CLASSIFICATION_TYPE": "U", "NORAD_CAT_ID": 65941, "ELEMENT_SET_NO": 999, "REV_AT_EPOCH": 1134, "BSTAR": 0.00088673356, "MEAN_MOTION_DOT": 0.00075191, "MEAN_MOTION_DDOT": 0}, "tle": {"line1": "1 65941U 98067XN  25356.25705337  .00075191  00000+0  88673-3 0  9995", "line2": "2 65941  51.6293  92.0993 0002153 341.2736  18.8178 15.60674644 11347"}}, "geometry": {"type": "Point", "coordinates": [-135.95887019536988, 41.9291247134193]}}, {"type": "Feature", "properties": {"norad_id": 65942, "name": "BOTAN", "group": "stations", "lat": -35.36239403300913, "lon": -57.347554202598566, "alt_km": 377.5234312708135, "timestamp": "2025-12-22T18:58:52.172476+00:00", "meta": {"OBJECT_NAME": "BOTAN", "OBJECT_ID": "1998-067XP", "EPOCH": "2025-12-21T23:37:13.039680", "MEAN_MOTION": 15.64723057, "ECCENTRICITY": 0.00030592, "INCLINATION": 51.6285, "RA_OF_ASC_NODE": 92.5255, "ARG_OF_PERICENTER": 316.6452, "MEAN_ANOMALY": 43.4302, "EPHEMERIS_TYPE": 0, "CLASSIFICATION_TYPE": "U", "NORAD_CAT_ID": 65942, "ELEMENT_SET_NO": 999, "REV_AT_EPOCH": 1131, "BSTAR": 0.0011948003, "MEAN_MOTION_DOT": 0.00119607, "MEAN_MOTION_DDOT": 0}, "tle": {"line1": "1 65942U 98067XP  25355.98417870  .00119607  00000+0  11948-2 0  9998", "line2": "2 65942  51.6285  92.5255 0003059 316.6452  43.4302 15.64723057 11319"}}, "geometry": {"type": "Point", "coordinates": [-57.347554202598566, -35.36239403300913]}}, {"type": "Feature", "properties": {"norad_id": 65943, "name": "E-KAGAKU-1", "group": "stations", "lat": 42.31924064311738, "lon": -136.75493304095644, "alt_km": 380.586701835884, "timestamp": "2025-12-22T18:58:52.172487+00:00", "meta": {"OBJECT_NAME": "E-KAGAKU-1", "OBJECT_ID": "1998-067XQ", "EPOCH": "2025-12-21T11:43:47.711424", "MEAN_MOTION": 15.60558335, "ECCENTRICITY": 0.00011984, "INCLINATION": 51.6316, "RA_OF_ASC_NODE": 95.9734, "ARG_OF_PERICENTER": 280.9822, "MEAN_ANOMALY": 79.1036, "EPHEMERIS_TYPE": 0, "CLASSIFICATION_TYPE": "U", "NORAD_CAT_ID": 65943, "ELEMENT_SET_NO": 999, "REV_AT_EPOCH": 1122, "BSTAR": 0.00073910068, "MEAN_MOTION_DOT": 0.00062201, "MEAN_MOTION_DDOT": 0}, "tle": {"line1": "1 65943U 98067XQ  25355.48874666  .00062201  00000+0  73910-3 0  9999", "line2": "2 65943  51.6316  95.9734 0001198 280.9822  79.1036 15.60558335 11221"}}, "geometry": {"type": "Point", "coordinates": [-136.75493304095644, 42.31924064311738]}}]}